{
  "type": "FeatureCollection",
  "features": [
    {
      "type": "Feature",
      "properties": {
        "name": "Deuxave",
        "icon": "utensils",
        "color": "red",
        "detail": "Booking Details\n- Name: Tom Rubel\n- Date: Sunday, August 2, 2026\n- Time: 6:30 PM\n- Party Size: 2 Guests\n- Confirmation Number: 2109997237 \n- Restaurant Information\n\t- Address: 371 Commonwealth Avenue, Boston, MA 02115\n\t- Phone: 75175915 Important Policies\n\t- Grace Period: 15 minutes. You must contact the restaurant if you anticipate being later than this.\n\t- Cancellation Policy: Cancellations or no-shows within 24 hours of the reservation will incur a $50 per person charge. Modifying the guest count within 24 hours incurs a $25 per person charge.\n\nDescription\n\nLocation:\u00a0371 Commonwealth Avenue, Back Bay, Boston, MA  \nPhone:\u00a0617-517-5915 | Hours: Sun-Thu 5pm\u20139:30pm, Fri 5pm\u201310pm, Sat 5pm\u201310:30pm\n\nThe Vibe & Atmosphere\n\n- Chic elegance without stuffiness.Glamorous chandelier-lit dining room that feels special-occasion-worthy but genuinely welcoming.\n- Forbes 4-Star rated\u00a0(retained since 2017); \"Best French Restaurant\" winner from Boston Magazine multiple times (2014, 2017, 2023, 2025)\n- Warm lighting and cream-colored palette with marble & stone accents; windows overlook Commonwealth and Massachusetts Avenues\n- Heated outdoor patio (perfect in season); fireplace in main dining room\n- Unique feature:\u00a0wall of mirrors reflecting Back Bay skyline\n- Beautiful windows framing historic Back Bay architecture\n\nThe Crowd\n\n- Special occasion diners (celebrations, anniversaries, round-number birthdays)\n- Date night couples seeking romance\n- Boston's top chefs (professional endorsement\u2014they dine here)\n- Upscale but not pretentious clientele\n- Mixed business/leisure crowds\n\nWhat Diners Rave About\n\nBest Dishes (from reviews):\n\n- Duck Confit\u00a0\u2014 Signature dish; crispy exterior, melting meat, often with lentils and Port reduction\n- Roast Duck\u00a0\u2014 Pistachio-crusted or traditional; called \"best duck in the city\"\n- Foie Gras\u00a0\u2014 Luxurious preparations; sometimes paired with prunes soaked in Port\n- Roast Chicken\u00a0\u2014 Perfectly executed French classic\n- Cr\u00e8me Br\u00fbl\u00e9e\u00a0\u2014 Coconut version with orange sorbet receives particular praise\n- Lobster Bisque\u00a0\u2014 Elegant French preparation\n- Prime Beef Tartare & Wagyu Carpaccio\u00a0\u2014 Described as \"ambitious appetizers\"\n\nWine Program (Major Strength)\n\n- 630 selections\u00a0from 2,600-bottle inventory\n- Wine Spectator Award of Excellence(since 2015)\n- Sommelier\u00a0Nick Daddona\u00a0(10+ years experience) curates exceptional pairings\n- Specialties: French Burgundy, Bordeaux, Rh\u00f4ne, Bordeaux, Italy, California\n- Many bottles under\u00a050;extensive50;extensive100+ selection\n- World-class wine program\u2014described as one of Boston's best\n\nService\n\n- Consistently praised as \"impeccable,\" \"attentive,\" and \"solicitous\"\n- Friendly yet professional tone\n- Knowledgeable staff about dishes and wine pairings\n- Responsive to special occasions\n\nDress Code\n\n- Casual-but-smart to dressy evening wear\n- Upscale atmosphere suggests something trendier than business casual\n\nWhat Reviewers Say\n\n\"Exquisite, nouvelle French\u2013inflected cuisine to linger over, beautifully served in a sexy space with a cool bar.\" \u2014 Zagat\n\n\"Glamorous, chandelier-lit dining room creates special-occasion-feel, but there isn't a hint of stuffiness thanks to friendly vibe.\" \u2014 Time Out\n\n\"That rare American with a perfect French accent.\" \u2014 Boston Magazine (2025)\n\nTo Maximize Your Experience at Deuxave\n\n1. Reserve in advance\u00a0(8+ parties book via OpenTable as \"Experiences\"; 13+ via\u00a0info@deuxave.com)\n2. Ask for wine pairing recommendations\u00a0\u2014 the sommelier is a major asset\n3. Mention occasion\u00a0\u2014 special attention to celebrations/dates\n4. Try the seasonal tasting menu\u00a0(145,addfoiegrassupplementfor\u00a0145,addfoiegrassupplementfor\u00a030)\n5. Arrive dressed elegantly\u00a0\u2014 the beautiful room invites sophistication\n6. Dine in shoulder seasons\u00a0(spring/early fall) for patio access\n7. Consider the duck confit or roast duck\u00a0as signature dishes",
        "website": "https://www.google.com/maps/place/Deuxave/@42.3495174,-71.0916957,812m/data=!3m2!1e3!4b1!4m6!3m5!1s0x89e37a04c2ac1b6f:0xb67531643a81095!8m2!3d42.3495135!4d-71.0891154!16s%2Fg%2F1tj1t2rv?entry=ttu&g_ep=EgoyMDI2MDYyOS4wIKXMDSoASAFQAw%3D%3D"
      },
      "geometry": {
        "type": "Point",
        "coordinates": [
          -71.08906295360441,
          42.349677594933574
        ]
      }
    }
  ]
}